[Satellite]
VERSION=1.1
NAME=SAOCOM 1A
NICKNAME=SAOCOM 1A
TLE1=1 43641U 18076A   20158.07679253  .00000032  00000-0  10518-4 0  9999
TLE2=2 43641  97.8897 344.3557 0001487  83.9330 276.2052 14.82157807 89919
STATUS=0
